0 COSMOS 480
1 05905U 72019A   13281.20233978  .00000206  00000-0  48103-3 0  3280
2 05905 082.9762 161.1453 0017410 278.8376 203.6553 13.19813621   964
0 COSMOS 480
1 05905U 72019A   13283.25280279  .00000079  00000-0  16521-3 0  3291
2 05905 082.9757 159.7715 0017453 273.2024 226.5146 13.19815330  1230
0 COSMOS 480
1 05905U 72019A   13285.29901307 -.00000180  00000-0 -48008-3 0  3301
2 05905 082.9754 158.4005 0017469 267.6600 229.0824 13.19817910  1506
0 COSMOS 480
1 05905U 72019A   13287.78346441  .00000130  00000-0  29080-3 0  3312
2 05905 082.9749 156.7359 0017513 260.8978 154.0285 13.19814799  1832
0 COSMOS 480
1 05905U 72019A   13290.15405148  .00000199  00000-0  46280-3 0  3324
2 05905 082.9742 155.1475 0017560 254.4528 257.9172 13.19814538  2143
0 COSMOS 480
1 05905U 72019A   13292.55020626 -.00000202  00000-0 -53648-3 0  3338
2 05905 082.9740 153.5417 0017636 248.0043 123.2007 13.19818450  2468
0 COSMOS 480
1 05905U 72019A   13294.75696913 -.00000020  00000-0 -81108-4 0  3342
2 05905 082.9741 152.0627 0017692 242.0623 168.6370 13.19816597  2754
